start=new Date('2022-10-02T00:00:00.000Z').valueOf();
sats=[{"INCLINATION":"53.0556","MEAN_MOTION_DOT":"0.00001602","TIME_SYSTEM":"UTC","TLE_LINE1":"1 48691U 21044BF  22274.52005816  .00001602  00000-0  12639-3 0  9996","ECCENTRICITY":"0.00015490","EPHEMERIS_TYPE":"0","SITE":"AFETR","RCS_SIZE":"LARGE","OBJECT_TYPE":"PAYLOAD","MEAN_ELEMENT_THEORY":"SGP4","CLASSIFICATION_TYPE":"U","LAUNCH_DATE":"2021-05-26","REF_FRAME":"TEME","ELEMENT_SET_NO":"999","REV_AT_EPOCH":"7599","ARG_OF_PERICENTER":"58.3116","PERIOD":"95.592","DECAY_DATE":null,"MEAN_MOTION":"15.06404955","GP_ID":"213920635","MEAN_MOTION_DDOT":"0.0000000000000","COUNTRY_CODE":"US","EPOCH":"2022-10-01T12:28:53.025024","CENTER_NAME":"EARTH","OBJECT_NAME":"STARLINK-2750","FILE":"3588465","PERIAPSIS":"546.126","MEAN_ANOMALY":"301.8024","NORAD_CAT_ID":"48691","APOAPSIS":"548.271","RA_OF_ASC_NODE":"311.3057","OBJECT_ID":"2021-044BF","SEMIMAJOR_AXIS":"6925.333","BSTAR":"0.00012639000000","TLE_LINE2":"2 48691  53.0556 311.3057 0001549  58.3116 301.8024 15.06404955 75994"},{"REF_FRAME":"TEME","PERIOD":"95.592","ARG_OF_PERICENTER":"70.5085","DECAY_DATE":null,"ELEMENT_SET_NO":"999","REV_AT_EPOCH":"7520","MEAN_ELEMENT_THEORY":"SGP4","OBJECT_TYPE":"PAYLOAD","LAUNCH_DATE":"2021-05-26","CLASSIFICATION_TYPE":"U","SITE":"AFETR","EPHEMERIS_TYPE":"0","ECCENTRICITY":"0.00016040","RCS_SIZE":"LARGE","MEAN_MOTION_DOT":"0.00001283","INCLINATION":"53.0540","TLE_LINE1":"1 48692U 21044BG  22274.83706222  .00001283  00000-0  10499-3 0  9997","TIME_SYSTEM":"UTC","APOAPSIS":"548.310","RA_OF_ASC_NODE":"309.9990","TLE_LINE2":"2 48692  53.0540 309.9990 0001604  70.5085 289.6077 15.06404802 75206","BSTAR":"0.00010499000000","OBJECT_ID":"2021-044BG","SEMIMAJOR_AXIS":"6925.334","FILE":"3588844","PERIAPSIS":"546.088","EPOCH":"2022-10-01T20:05:22.175808","OBJECT_NAME":"STARLINK-2752","CENTER_NAME":"EARTH","NORAD_CAT_ID":"48692","MEAN_ANOMALY":"289.6077","MEAN_MOTION_DDOT":"0.0000000000000","COUNTRY_CODE":"US","MEAN_MOTION":"15.06404802","GP_ID":"213976537"},{"REF_FRAME":"TEME","REV_AT_EPOCH":"7513","ELEMENT_SET_NO":"999","DECAY_DATE":null,"ARG_OF_PERICENTER":"65.1972","PERIOD":"95.592","OBJECT_TYPE":"PAYLOAD","MEAN_ELEMENT_THEORY":"SGP4","CLASSIFICATION_TYPE":"U","LAUNCH_DATE":"2021-05-26","ECCENTRICITY":"0.00015330","SITE":"AFETR","EPHEMERIS_TYPE":"0","RCS_SIZE":"LARGE","INCLINATION":"53.0542","MEAN_MOTION_DOT":"0.00004500","TIME_SYSTEM":"UTC","TLE_LINE1":"1 48693U 21044BH  22274.84484731  .00004500  00000-0  32074-3 0  9995","RA_OF_ASC_NODE":"314.8394","APOAPSIS":"548.247","SEMIMAJOR_AXIS":"6925.320","OBJECT_ID":"2021-044BH","TLE_LINE2":"2 48693  53.0542 314.8394 0001533  65.1972 294.9176 15.06409269 75131","BSTAR":"0.00032074000000","CENTER_NAME":"EARTH","OBJECT_NAME":"STARLINK-2618","EPOCH":"2022-10-01T20:16:34.807584","PERIAPSIS":"546.123","FILE":"3588844","NORAD_CAT_ID":"48693","MEAN_ANOMALY":"294.9176","MEAN_MOTION_DDOT":"0.0000000000000","COUNTRY_CODE":"US","MEAN_MOTION":"15.06409269","GP_ID":"213976288"},{"TLE_LINE1":"1 48694U 21044BJ  22274.41498227  .00004820  00000-0  34223-3 0  9997","TIME_SYSTEM":"UTC","MEAN_MOTION_DOT":"0.00004820","INCLINATION":"53.0554","RCS_SIZE":"LARGE","EPHEMERIS_TYPE":"0","SITE":"AFETR","ECCENTRICITY":"0.00018180","LAUNCH_DATE":"2021-05-26","CLASSIFICATION_TYPE":"U","MEAN_ELEMENT_THEORY":"SGP4","OBJECT_TYPE":"PAYLOAD","PERIOD":"95.592","ARG_OF_PERICENTER":"53.9515","DECAY_DATE":null,"ELEMENT_SET_NO":"999","REV_AT_EPOCH":"7499","REF_FRAME":"TEME","GP_ID":"213944860","MEAN_MOTION":"15.06401795","COUNTRY_CODE":"US","MEAN_MOTION_DDOT":"0.0000000000000","MEAN_ANOMALY":"306.1643","NORAD_CAT_ID":"48694","FILE":"3588593","PERIAPSIS":"545.949","EPOCH":"2022-10-01T09:57:34.468128","OBJECT_NAME":"STARLINK-2748","CENTER_NAME":"EARTH","TLE_LINE2":"2 48694  53.0554 321.7713 0001818  53.9515 306.1643 15.06401795 74995","BSTAR":"0.00034223000000","SEMIMAJOR_AXIS":"6925.343","OBJECT_ID":"2021-044BJ","APOAPSIS":"548.467","RA_OF_ASC_NODE":"321.7713"},{"PERIAPSIS":"546.005","FILE":"3588844","CENTER_NAME":"EARTH","OBJECT_NAME":"STARLINK-2616","EPOCH":"2022-10-01T20:04:01.986240","NORAD_CAT_ID":"48695","MEAN_ANOMALY":"300.8710","RA_OF_ASC_NODE":"319.9316","APOAPSIS":"548.281","TLE_LINE2":"2 48695  53.0540 319.9316 0001643  59.2441 300.8710 15.06422933 75064","BSTAR":"0.00069870000000","SEMIMAJOR_AXIS":"6925.278","OBJECT_ID":"2021-044BK","MEAN_MOTION":"15.06422933","GP_ID":"213977290","MEAN_MOTION_DDOT":"0.0000000000000","COUNTRY_CODE":"US","MEAN_ELEMENT_THEORY":"SGP4","OBJECT_TYPE":"PAYLOAD","LAUNCH_DATE":"2021-05-26","CLASSIFICATION_TYPE":"U","REF_FRAME":"TEME","DECAY_DATE":null,"PERIOD":"95.591","ARG_OF_PERICENTER":"59.2441","REV_AT_EPOCH":"7506","ELEMENT_SET_NO":"999","MEAN_MOTION_DOT":"0.00010147","INCLINATION":"53.0540","TLE_LINE1":"1 48695U 21044BK  22274.83613410  .00010147  00000-0  69870-3 0  9992","TIME_SYSTEM":"UTC","SITE":"AFETR","EPHEMERIS_TYPE":"0","ECCENTRICITY":"0.00016430","RCS_SIZE":"LARGE"},{"REV_AT_EPOCH":"7493","ELEMENT_SET_NO":"999","DECAY_DATE":null,"ARG_OF_PERICENTER":"66.3597","PERIOD":"95.592","REF_FRAME":"TEME","CLASSIFICATION_TYPE":"U","LAUNCH_DATE":"2021-05-26","OBJECT_TYPE":"PAYLOAD","MEAN_ELEMENT_THEORY":"SGP4","RCS_SIZE":"LARGE","ECCENTRICITY":"0.00016740","EPHEMERIS_TYPE":"0","SITE":"AFETR","TIME_SYSTEM":"UTC","TLE_LINE1":"1 48696U 21044BL  22274.42838245  .00009195  00000-0  63527-3 0  9997","MEAN_MOTION_DOT":"0.00009195","INCLINATION":"53.0558","OBJECT_ID":"2021-044BL","SEMIMAJOR_AXIS":"6925.326","BSTAR":"0.00063527000000","TLE_LINE2":"2 48696  53.0558 326.7506 0001674  66.3597 293.7568 15.06407350 74938","RA_OF_ASC_NODE":"326.7506","APOAPSIS":"548.350","MEAN_ANOMALY":"293.7568","NORAD_CAT_ID":"48696","CENTER_NAME":"EARTH","OBJECT_NAME":"STARLINK-2753","EPOCH":"2022-10-01T10:16:52.243680","PERIAPSIS":"546.032","FILE":"3588593","COUNTRY_CODE":"US","MEAN_MOTION_DDOT":"0.0000000000000","GP_ID":"213945858","MEAN_MOTION":"15.06407350"},{"EPOCH":"2022-10-01T20:32:33.194400","OBJECT_NAME":"STARLINK-2715","CENTER_NAME":"EARTH","FILE":"3588844","PERIAPSIS":"546.159","NORAD_CAT_ID":"48697","MEAN_ANOMALY":"292.6494","APOAPSIS":"548.267","RA_OF_ASC_NODE":"324.7995","OBJECT_ID":"2021-044BM","SEMIMAJOR_AXIS":"6925.348","TLE_LINE2":"2 48697  53.0557 324.7995 0001522  67.4656 292.6494 15.06400117 74994","BSTAR":"0.00014322000000","MEAN_MOTION":"15.06400117","GP_ID":"213976788","MEAN_MOTION_DDOT":"0.0000000000000","COUNTRY_CODE":"US","OBJECT_TYPE":"PAYLOAD","MEAN_ELEMENT_THEORY":"SGP4","CLASSIFICATION_TYPE":"U","LAUNCH_DATE":"2021-05-26","REF_FRAME":"TEME","ELEMENT_SET_NO":"999","REV_AT_EPOCH":"7499","PERIOD":"95.592","ARG_OF_PERICENTER":"67.4656","DECAY_DATE":null,"MEAN_MOTION_DOT":"0.00001852","INCLINATION":"53.0557","TIME_SYSTEM":"UTC","TLE_LINE1":"1 48697U 21044BM  22274.85593975  .00001852  00000-0  14322-3 0  9994","ECCENTRICITY":"0.00015220","SITE":"AFETR","EPHEMERIS_TYPE":"0","RCS_SIZE":"LARGE"},{"MEAN_MOTION":"15.02900079","GP_ID":"213977809","MEAN_MOTION_DDOT":"0.0000000000000","COUNTRY_CODE":"US","PERIAPSIS":"556.876","FILE":"3588844","CENTER_NAME":"EARTH","OBJECT_NAME":"STARLINK-3003","EPOCH":"2022-10-01T22:00:00.999936","NORAD_CAT_ID":"48879","MEAN_ANOMALY":"196.0268","RA_OF_ASC_NODE":"42.2935","APOAPSIS":"559.047","TLE_LINE2":"2 48879  97.5125  42.2935 0001565 111.3068 196.0268 15.02900079  1308","BSTAR":"-0.00524070000000","OBJECT_ID":"2021-059A","SEMIMAJOR_AXIS":"6936.096","INCLINATION":"97.5125","MEAN_MOTION_DOT":"-0.00069652","TLE_LINE1":"1 48879U 21059A   22274.91667824 -.00069652  00000-0 -52407-2 0  9993","TIME_SYSTEM":"UTC","EPHEMERIS_TYPE":"0","SITE":"AFETR","ECCENTRICITY":"0.00015650","RCS_SIZE":"LARGE","MEAN_ELEMENT_THEORY":"SGP4","OBJECT_TYPE":"PAYLOAD","LAUNCH_DATE":"2021-06-30","CLASSIFICATION_TYPE":"U","REF_FRAME":"TEME","DECAY_DATE":null,"ARG_OF_PERICENTER":"111.3068","PERIOD":"95.815","REV_AT_EPOCH":"130","ELEMENT_SET_NO":"999"},{"MEAN_MOTION_DDOT":"0.0000000000000","COUNTRY_CODE":"US","MEAN_MOTION":"15.02892366","GP_ID":"213976557","APOAPSIS":"559.176","RA_OF_ASC_NODE":"42.2970","BSTAR":"-0.00195120000000","TLE_LINE2":"2 48880  97.5120  42.2970 0001717 109.7851 206.7797 15.02892366  1309","SEMIMAJOR_AXIS":"6936.120","OBJECT_ID":"2021-059B","FILE":"3588844","PERIAPSIS":"556.794","EPOCH":"2022-10-01T22:00:00.999936","CENTER_NAME":"EARTH","OBJECT_NAME":"STARLINK-3004","MEAN_ANOMALY":"206.7797","NORAD_CAT_ID":"48880","EPHEMERIS_TYPE":"0","SITE":"AFETR","ECCENTRICITY":"0.00017170","RCS_SIZE":"LARGE","MEAN_MOTION_DOT":"-0.00026123","INCLINATION":"97.5120","TLE_LINE1":"1 48880U 21059B   22274.91667824 -.00026123  00000-0 -19512-2 0  9991","TIME_SYSTEM":"UTC","REF_FRAME":"TEME","ARG_OF_PERICENTER":"109.7851","PERIOD":"95.815","DECAY_DATE":null,"ELEMENT_SET_NO":"999","REV_AT_EPOCH":"130","MEAN_ELEMENT_THEORY":"SGP4","OBJECT_TYPE":"PAYLOAD","LAUNCH_DATE":"2021-06-30","CLASSIFICATION_TYPE":"U"},{"RCS_SIZE":"LARGE","ECCENTRICITY":"0.00015620","SITE":"AFETR","EPHEMERIS_TYPE":"0","TIME_SYSTEM":"UTC","TLE_LINE1":"1 48881U 21059C   22274.91667824 -.00070772  00000-0 -53244-2 0  9991","INCLINATION":"97.5131","MEAN_MOTION_DOT":"-0.00070772","REV_AT_EPOCH":"130","ELEMENT_SET_NO":"999","DECAY_DATE":null,"ARG_OF_PERICENTER":"108.4342","PERIOD":"95.814","REF_FRAME":"TEME","CLASSIFICATION_TYPE":"U","LAUNCH_DATE":"2021-06-30","OBJECT_TYPE":"PAYLOAD","MEAN_ELEMENT_THEORY":"SGP4","COUNTRY_CODE":"US","MEAN_MOTION_DDOT":"0.0000000000000","GP_ID":"213976308","MEAN_MOTION":"15.02910568","SEMIMAJOR_AXIS":"6936.064","OBJECT_ID":"2021-059C","TLE_LINE2":"2 48881  97.5131  42.3252 0001562 108.4342 231.1623 15.02910568  1300","BSTAR":"-0.00532440000000","RA_OF_ASC_NODE":"42.3252","APOAPSIS":"559.012","NORAD_CAT_ID":"48881","MEAN_ANOMALY":"231.1623","CENTER_NAME":"EARTH","OBJECT_NAME":"STARLINK-3005","EPOCH":"2022-10-01T22:00:00.999936","PERIAPSIS":"556.845","FILE":"3588844"}];
